[
{"id":"99","label":"2100 København Ø","zipcode":"2100"},
{"id":"687","label":"2150 Nordhavn","zipcode":"2150"},
{"id":"100","label":"2200 København N","zipcode":"2200"},
{"id":"101","label":"2300 København S","zipcode":"2300"},
{"id":"102","label":"2400 København NV","zipcode":"2400"},
{"id":"103","label":"2450 København SV","zipcode":"2450"},
{"id":"104","label":"2500 Valby","zipcode":"2500"},
{"id":"105","label":"2600 Glostrup","zipcode":"2600"},
{"id":"106","label":"2605 Brøndby","zipcode":"2605"},
{"id":"107","label":"2610 Rødovre","zipcode":"2610"},
{"id":"108","label":"2620 Albertslund","zipcode":"2620"},
{"id":"109","label":"2625 Vallensbæk","zipcode":"2625"},
{"id":"110","label":"2630 Taastrup","zipcode":"2630"},
{"id":"111","label":"2635 Ishøj","zipcode":"2635"},
{"id":"112","label":"2640 Hedehusene","zipcode":"2640"},
{"id":"113","label":"2650 Hvidovre","zipcode":"2650"},
{"id":"114","label":"2660 Brøndby Strand","zipcode":"2660"},
{"id":"115","label":"2665 Vallensbæk Strand","zipcode":"2665"},
{"id":"116","label":"2670 Greve","zipcode":"2670"},
{"id":"117","label":"2680 Solrød Strand","zipcode":"2680"},
{"id":"118","label":"2690 Karlslunde","zipcode":"2690"},
{"id":"119","label":"2700 Brønshøj","zipcode":"2700"},
{"id":"120","label":"2720 Vanløse","zipcode":"2720"},
{"id":"121","label":"2730 Herlev","zipcode":"2730"},
{"id":"122","label":"2740 Skovlunde","zipcode":"2740"},
{"id":"123","label":"2750 Ballerup","zipcode":"2750"},
{"id":"124","label":"2760 Måløv","zipcode":"2760"},
{"id":"125","label":"2765 Smørum","zipcode":"2765"},
{"id":"126","label":"2770 Kastrup","zipcode":"2770"},
{"id":"127","label":"2791 Dragør","zipcode":"2791"},
{"id":"128","label":"2800 Kgs. Lyngby","zipcode":"2800"},
{"id":"129","label":"2820 Gentofte","zipcode":"2820"},
{"id":"130","label":"2830 Virum","zipcode":"2830"},
{"id":"131","label":"2840 Holte","zipcode":"2840"},
{"id":"132","label":"2850 Nærum","zipcode":"2850"},
{"id":"133","label":"2860 Søborg","zipcode":"2860"},
{"id":"134","label":"2870 Dyssegård","zipcode":"2870"},
{"id":"135","label":"2880 Bagsværd","zipcode":"2880"},
{"id":"136","label":"2900 Hellerup","zipcode":"2900"},
{"id":"137","label":"2920 Charlottenlund","zipcode":"2920"},
{"id":"138","label":"2930 Klampenborg","zipcode":"2930"},
{"id":"139","label":"2942 Skodsborg","zipcode":"2942"},
{"id":"140","label":"2950 Vedbæk","zipcode":"2950"},
{"id":"141","label":"2960 Rungsted Kyst","zipcode":"2960"},
{"id":"142","label":"2970 Hørsholm","zipcode":"2970"},
{"id":"143","label":"2980 Kokkedal","zipcode":"2980"},
{"id":"144","label":"2990 Nivå","zipcode":"2990"},
{"id":"145","label":"3000 Helsingør","zipcode":"3000"},
{"id":"146","label":"3050 Humlebæk","zipcode":"3050"},
{"id":"147","label":"3060 Espergærde","zipcode":"3060"},
{"id":"148","label":"3070 Snekkersten","zipcode":"3070"},
{"id":"149","label":"3080 Tikøb","zipcode":"3080"},
{"id":"150","label":"3100 Hornbæk","zipcode":"3100"},
{"id":"151","label":"3120 Dronningmølle","zipcode":"3120"},
{"id":"152","label":"3140 Ålsgårde","zipcode":"3140"},
{"id":"153","label":"3150 Hellebæk","zipcode":"3150"},
{"id":"154","label":"3200 Helsinge","zipcode":"3200"},
{"id":"155","label":"3210 Vejby","zipcode":"3210"},
{"id":"156","label":"3220 Tisvildeleje","zipcode":"3220"},
{"id":"157","label":"3230 Græsted","zipcode":"3230"},
{"id":"158","label":"3250 Gilleleje","zipcode":"3250"},
{"id":"159","label":"3300 Frederiksværk","zipcode":"3300"},
{"id":"160","label":"3310 Ølsted","zipcode":"3310"},
{"id":"161","label":"3320 Skævinge","zipcode":"3320"},
{"id":"162","label":"3330 Gørløse","zipcode":"3330"},
{"id":"163","label":"3360 Liseleje","zipcode":"3360"},
{"id":"164","label":"3370 Melby","zipcode":"3370"},
{"id":"165","label":"3390 Hundested","zipcode":"3390"},
{"id":"166","label":"3400 Hillerød","zipcode":"3400"},
{"id":"167","label":"3450 Allerød","zipcode":"3450"},
{"id":"168","label":"3460 Birkerød","zipcode":"3460"},
{"id":"169","label":"3480 Fredensborg","zipcode":"3480"},
{"id":"170","label":"3490 Kvistgård","zipcode":"3490"},
{"id":"171","label":"3500 Værløse","zipcode":"3500"},
{"id":"172","label":"3520 Farum","zipcode":"3520"},
{"id":"173","label":"3540 Lynge","zipcode":"3540"},
{"id":"174","label":"3550 Slangerup","zipcode":"3550"},
{"id":"175","label":"3600 Frederikssund","zipcode":"3600"},
{"id":"176","label":"3630 Jægerspris","zipcode":"3630"},
{"id":"177","label":"3650 Ølstykke","zipcode":"3650"},
{"id":"178","label":"3660 Stenløse","zipcode":"3660"},
{"id":"179","label":"3670 Veksø Sjælland","zipcode":"3670"},
{"id":"180","label":"3700 Rønne","zipcode":"3700"},
{"id":"181","label":"3720 Aakirkeby","zipcode":"3720"},
{"id":"182","label":"3730 Nexø","zipcode":"3730"},
{"id":"183","label":"3740 Svaneke","zipcode":"3740"},
{"id":"184","label":"3751 Østermarie","zipcode":"3751"},
{"id":"185","label":"3760 Gudhjem","zipcode":"3760"},
{"id":"186","label":"3770 Allinge","zipcode":"3770"},
{"id":"187","label":"3782 Klemensker","zipcode":"3782"},
{"id":"188","label":"3790 Hasle","zipcode":"3790"},
{"id":"189","label":"4000 Roskilde","zipcode":"4000"},
{"id":"190","label":"4030 Tune","zipcode":"4030"},
{"id":"191","label":"4040 Jyllinge","zipcode":"4040"},
{"id":"192","label":"4050 Skibby","zipcode":"4050"},
{"id":"193","label":"4060 Kirke Såby","zipcode":"4060"},
{"id":"194","label":"4070 Kirke Hyllinge","zipcode":"4070"},
{"id":"195","label":"4100 Ringsted","zipcode":"4100"},
{"id":"196","label":"4130 Viby Sjælland","zipcode":"4130"},
{"id":"197","label":"4140 Borup","zipcode":"4140"},
{"id":"198","label":"4160 Herlufmagle","zipcode":"4160"},
{"id":"199","label":"4171 Glumsø","zipcode":"4171"},
{"id":"200","label":"4173 Fjenneslev","zipcode":"4173"},
{"id":"201","label":"4174 Jystrup Midtsj","zipcode":"4174"},
{"id":"202","label":"4180 Sorø","zipcode":"4180"},
{"id":"203","label":"4190 Munke Bjergby","zipcode":"4190"},
{"id":"204","label":"4200 Slagelse","zipcode":"4200"},
{"id":"205","label":"4220 Korsør","zipcode":"4220"},
{"id":"206","label":"4230 Skælskør","zipcode":"4230"},
{"id":"207","label":"4241 Vemmelev","zipcode":"4241"},
{"id":"208","label":"4242 Boeslunde","zipcode":"4242"},
{"id":"209","label":"4243 Rude","zipcode":"4243"},
{"id":"210","label":"4250 Fuglebjerg","zipcode":"4250"},
{"id":"211","label":"4261 Dalmose","zipcode":"4261"},
{"id":"212","label":"4262 Sandved","zipcode":"4262"},
{"id":"213","label":"4270 Høng","zipcode":"4270"},
{"id":"214","label":"4281 Gørlev","zipcode":"4281"},
{"id":"215","label":"4291 Ruds Vedby","zipcode":"4291"},
{"id":"216","label":"4293 Dianalund","zipcode":"4293"},
{"id":"217","label":"4295 Stenlille","zipcode":"4295"},
{"id":"218","label":"4296 Nyrup","zipcode":"4296"},
{"id":"219","label":"4300 Holbæk","zipcode":"4300"},
{"id":"220","label":"4320 Lejre","zipcode":"4320"},
{"id":"221","label":"4330 Hvalsø","zipcode":"4330"},
{"id":"222","label":"4340 Tølløse","zipcode":"4340"},
{"id":"223","label":"4350 Ugerløse","zipcode":"4350"},
{"id":"224","label":"4360 Kirke Eskilstrup","zipcode":"4360"},
{"id":"225","label":"4370 Store Merløse","zipcode":"4370"},
{"id":"226","label":"4390 Vipperød","zipcode":"4390"},
{"id":"227","label":"4400 Kalundborg","zipcode":"4400"},
{"id":"228","label":"4420 Regstrup","zipcode":"4420"},
{"id":"229","label":"4440 Mørkøv","zipcode":"4440"},
{"id":"230","label":"4450 Jyderup","zipcode":"4450"},
{"id":"231","label":"4460 Snertinge","zipcode":"4460"},
{"id":"232","label":"4470 Svebølle","zipcode":"4470"},
{"id":"233","label":"4480 Store Fuglede","zipcode":"4480"},
{"id":"234","label":"4490 Jerslev Sjælland","zipcode":"4490"},
{"id":"235","label":"4500 Nykøbing Sj","zipcode":"4500"},
{"id":"236","label":"4520 Svinninge","zipcode":"4520"},
{"id":"237","label":"4532 Gislinge","zipcode":"4532"},
{"id":"238","label":"4534 Hørve","zipcode":"4534"},
{"id":"239","label":"4540 Fårevejle","zipcode":"4540"},
{"id":"240","label":"4550 Asnæs","zipcode":"4550"},
{"id":"241","label":"4560 Vig","zipcode":"4560"},
{"id":"242","label":"4571 Grevinge","zipcode":"4571"},
{"id":"243","label":"4572 Nørre Asmindrup","zipcode":"4572"},
{"id":"244","label":"4573 Højby","zipcode":"4573"},
{"id":"245","label":"4581 Rørvig","zipcode":"4581"},
{"id":"246","label":"4583 Sjællands Odde","zipcode":"4583"},
{"id":"247","label":"4591 Føllenslev","zipcode":"4591"},
{"id":"248","label":"4592 Sejerø","zipcode":"4592"},
{"id":"249","label":"4593 Eskebjerg","zipcode":"4593"},
{"id":"250","label":"4600 Køge","zipcode":"4600"},
{"id":"251","label":"4621 Gadstrup","zipcode":"4621"},
{"id":"252","label":"4622 Havdrup","zipcode":"4622"},
{"id":"253","label":"4623 Lille Skensved","zipcode":"4623"},
{"id":"254","label":"4632 Bjæverskov","zipcode":"4632"},
{"id":"255","label":"4640 Faxe","zipcode":"4640"},
{"id":"256","label":"4652 Hårlev","zipcode":"4652"},
{"id":"257","label":"4653 Karise","zipcode":"4653"},
{"id":"258","label":"4654 Faxe Ladeplads","zipcode":"4654"},
{"id":"259","label":"4660 Store Heddinge","zipcode":"4660"},
{"id":"260","label":"4671 Strøby","zipcode":"4671"},
{"id":"261","label":"4672 Klippinge","zipcode":"4672"},
{"id":"262","label":"4673 Rødvig Stevns","zipcode":"4673"},
{"id":"263","label":"4681 Herfølge","zipcode":"4681"},
{"id":"264","label":"4682 Tureby","zipcode":"4682"},
{"id":"265","label":"4683 Rønnede","zipcode":"4683"},
{"id":"266","label":"4684 Holmegaard","zipcode":"4684"},
{"id":"267","label":"4690 Haslev","zipcode":"4690"},
{"id":"268","label":"4700 Næstved","zipcode":"4700"},
{"id":"269","label":"4720 Præstø","zipcode":"4720"},
{"id":"270","label":"4733 Tappernøje","zipcode":"4733"},
{"id":"271","label":"4735 Mern","zipcode":"4735"},
{"id":"272","label":"4736 Karrebæksminde","zipcode":"4736"},
{"id":"273","label":"4750 Lundby","zipcode":"4750"},
{"id":"274","label":"4760 Vordingborg","zipcode":"4760"},
{"id":"275","label":"4771 Kalvehave","zipcode":"4771"},
{"id":"276","label":"4772 Langebæk","zipcode":"4772"},
{"id":"277","label":"4773 Stensved","zipcode":"4773"},
{"id":"278","label":"4780 Stege","zipcode":"4780"},
{"id":"279","label":"4791 Borre","zipcode":"4791"},
{"id":"280","label":"4792 Askeby","zipcode":"4792"},
{"id":"281","label":"4793 Bogø By","zipcode":"4793"},
{"id":"282","label":"4800 Nykøbing F","zipcode":"4800"},
{"id":"283","label":"4840 Nørre Alslev","zipcode":"4840"},
{"id":"284","label":"4850 Stubbekøbing","zipcode":"4850"},
{"id":"285","label":"4862 Guldborg","zipcode":"4862"},
{"id":"286","label":"4863 Eskilstrup","zipcode":"4863"},
{"id":"287","label":"4871 Horbelev","zipcode":"4871"},
{"id":"288","label":"4872 Idestrup","zipcode":"4872"},
{"id":"289","label":"4873 Væggerløse","zipcode":"4873"},
{"id":"290","label":"4874 Gedser","zipcode":"4874"},
{"id":"291","label":"4880 Nysted","zipcode":"4880"},
{"id":"292","label":"4891 Toreby L","zipcode":"4891"},
{"id":"293","label":"4892 Kettinge","zipcode":"4892"},
{"id":"294","label":"4894 Øster Ulslev","zipcode":"4894"},
{"id":"295","label":"4895 Errindlev","zipcode":"4895"},
{"id":"296","label":"4900 Nakskov","zipcode":"4900"},
{"id":"297","label":"4912 Harpelunde","zipcode":"4912"},
{"id":"298","label":"4913 Horslunde","zipcode":"4913"},
{"id":"299","label":"4920 Søllested","zipcode":"4920"},
{"id":"300","label":"4930 Maribo","zipcode":"4930"},
{"id":"301","label":"4941 Bandholm","zipcode":"4941"},
{"id":"302","label":"4943 Torrig L","zipcode":"4943"},
{"id":"303","label":"4944 Fejø","zipcode":"4944"},
{"id":"304","label":"4951 Nørreballe","zipcode":"4951"},
{"id":"305","label":"4952 Stokkemarke","zipcode":"4952"},
{"id":"306","label":"4953 Vesterborg","zipcode":"4953"},
{"id":"307","label":"4960 Holeby","zipcode":"4960"},
{"id":"308","label":"4970 Rødby","zipcode":"4970"},
{"id":"309","label":"4983 Dannemare","zipcode":"4983"},
{"id":"310","label":"4990 Sakskøbing","zipcode":"4990"},
{"id":"311","label":"5000 Odense C","zipcode":"5000"},
{"id":"312","label":"5200 Odense V","zipcode":"5200"},
{"id":"313","label":"5210 Odense NV","zipcode":"5210"},
{"id":"314","label":"5220 Odense SØ","zipcode":"5220"},
{"id":"315","label":"5230 Odense M","zipcode":"5230"},
{"id":"316","label":"5240 Odense NØ","zipcode":"5240"},
{"id":"317","label":"5250 Odense SV","zipcode":"5250"},
{"id":"318","label":"5260 Odense S","zipcode":"5260"},
{"id":"319","label":"5270 Odense N","zipcode":"5270"},
{"id":"320","label":"5290 Marslev","zipcode":"5290"},
{"id":"321","label":"5300 Kerteminde","zipcode":"5300"},
{"id":"322","label":"5320 Agedrup","zipcode":"5320"},
{"id":"323","label":"5330 Munkebo","zipcode":"5330"},
{"id":"324","label":"5350 Rynkeby","zipcode":"5350"},
{"id":"325","label":"5370 Mesinge","zipcode":"5370"},
{"id":"326","label":"5380 Dalby","zipcode":"5380"},
{"id":"327","label":"5390 Martofte","zipcode":"5390"},
{"id":"328","label":"5400 Bogense","zipcode":"5400"},
{"id":"329","label":"5450 Otterup","zipcode":"5450"},
{"id":"330","label":"5462 Morud","zipcode":"5462"},
{"id":"331","label":"5463 Harndrup","zipcode":"5463"},
{"id":"332","label":"5464 Brenderup Fyn","zipcode":"5464"},
{"id":"333","label":"5466 Asperup","zipcode":"5466"},
{"id":"334","label":"5471 Søndersø","zipcode":"5471"},
{"id":"335","label":"5474 Veflinge","zipcode":"5474"},
{"id":"336","label":"5485 Skamby","zipcode":"5485"},
{"id":"337","label":"5491 Blommenslyst","zipcode":"5491"},
{"id":"338","label":"5492 Vissenbjerg","zipcode":"5492"},
{"id":"339","label":"5500 Middelfart","zipcode":"5500"},
{"id":"340","label":"5540 Ullerslev","zipcode":"5540"},
{"id":"341","label":"5550 Langeskov","zipcode":"5550"},
{"id":"342","label":"5560 Aarup","zipcode":"5560"},
{"id":"343","label":"5580 Nørre Aaby","zipcode":"5580"},
{"id":"344","label":"5591 Gelsted","zipcode":"5591"},
{"id":"345","label":"5592 Ejby","zipcode":"5592"},
{"id":"346","label":"5600 Faaborg","zipcode":"5600"},
{"id":"347","label":"5610 Assens","zipcode":"5610"},
{"id":"348","label":"5620 Glamsbjerg","zipcode":"5620"},
{"id":"349","label":"5631 Ebberup","zipcode":"5631"},
{"id":"350","label":"5642 Millinge","zipcode":"5642"},
{"id":"351","label":"5672 Broby","zipcode":"5672"},
{"id":"352","label":"5683 Haarby","zipcode":"5683"},
{"id":"353","label":"5690 Tommerup","zipcode":"5690"},
{"id":"354","label":"5700 Svendborg","zipcode":"5700"},
{"id":"355","label":"5750 Ringe","zipcode":"5750"},
{"id":"356","label":"5762 Vester Skerninge","zipcode":"5762"},
{"id":"357","label":"5771 Stenstrup","zipcode":"5771"},
{"id":"358","label":"5772 Kværndrup","zipcode":"5772"},
{"id":"359","label":"5792 Årslev","zipcode":"5792"},
{"id":"360","label":"5800 Nyborg","zipcode":"5800"},
{"id":"361","label":"5853 Ørbæk","zipcode":"5853"},
{"id":"362","label":"5854 Gislev","zipcode":"5854"},
{"id":"363","label":"5856 Ryslinge","zipcode":"5856"},
{"id":"364","label":"5863 Ferritslev Fyn","zipcode":"5863"},
{"id":"365","label":"5871 Frørup","zipcode":"5871"},
{"id":"366","label":"5874 Hesselager","zipcode":"5874"},
{"id":"367","label":"5881 Skårup Fyn","zipcode":"5881"},
{"id":"368","label":"5882 Vejstrup","zipcode":"5882"},
{"id":"369","label":"5883 Oure","zipcode":"5883"},
{"id":"370","label":"5884 Gudme","zipcode":"5884"},
{"id":"371","label":"5892 Gudbjerg Sydfyn","zipcode":"5892"},
{"id":"372","label":"5900 Rudkøbing","zipcode":"5900"},
{"id":"373","label":"5932 Humble","zipcode":"5932"},
{"id":"374","label":"5935 Bagenkop","zipcode":"5935"},
{"id":"375","label":"5953 Tranekær","zipcode":"5953"},
{"id":"376","label":"5960 Marstal","zipcode":"5960"},
{"id":"377","label":"5970 Ærøskøbing","zipcode":"5970"},
{"id":"378","label":"5985 Søby Ærø","zipcode":"5985"},
{"id":"379","label":"6000 Kolding","zipcode":"6000"},
{"id":"380","label":"6040 Egtved","zipcode":"6040"},
{"id":"381","label":"6051 Almind","zipcode":"6051"},
{"id":"382","label":"6052 Viuf","zipcode":"6052"},
{"id":"383","label":"6064 Jordrup","zipcode":"6064"},
{"id":"384","label":"6070 Christiansfeld","zipcode":"6070"},
{"id":"385","label":"6091 Bjert","zipcode":"6091"},
{"id":"386","label":"6092 Sønder Stenderup","zipcode":"6092"},
{"id":"387","label":"6093 Sjølund","zipcode":"6093"},
{"id":"388","label":"6094 Hejls","zipcode":"6094"},
{"id":"389","label":"6100 Haderslev","zipcode":"6100"},
{"id":"390","label":"6200 Aabenraa","zipcode":"6200"},
{"id":"391","label":"6230 Rødekro","zipcode":"6230"},
{"id":"392","label":"6240 Løgumkloster","zipcode":"6240"},
{"id":"393","label":"6261 Bredebro","zipcode":"6261"},
{"id":"394","label":"6270 Tønder","zipcode":"6270"},
{"id":"395","label":"6280 Højer","zipcode":"6280"},
{"id":"396","label":"6300 Gråsten","zipcode":"6300"},
{"id":"397","label":"6310 Broager","zipcode":"6310"},
{"id":"398","label":"6320 Egernsund","zipcode":"6320"},
{"id":"399","label":"6330 Padborg","zipcode":"6330"},
{"id":"400","label":"6340 Kruså","zipcode":"6340"},
{"id":"401","label":"6360 Tinglev","zipcode":"6360"},
{"id":"402","label":"6372 Bylderup-Bov","zipcode":"6372"},
{"id":"403","label":"6392 Bolderslev","zipcode":"6392"},
{"id":"404","label":"6400 Sønderborg","zipcode":"6400"},
{"id":"405","label":"6430 Nordborg","zipcode":"6430"},
{"id":"406","label":"6440 Augustenborg","zipcode":"6440"},
{"id":"407","label":"6470 Sydals","zipcode":"6470"},
{"id":"408","label":"6500 Vojens","zipcode":"6500"},
{"id":"409","label":"6510 Gram","zipcode":"6510"},
{"id":"410","label":"6520 Toftlund","zipcode":"6520"},
{"id":"411","label":"6534 Agerskov","zipcode":"6534"},
{"id":"412","label":"6535 Branderup J","zipcode":"6535"},
{"id":"413","label":"6541 Bevtoft","zipcode":"6541"},
{"id":"414","label":"6560 Sommersted","zipcode":"6560"},
{"id":"415","label":"6580 Vamdrup","zipcode":"6580"},
{"id":"416","label":"6600 Vejen","zipcode":"6600"},
{"id":"417","label":"6621 Gesten","zipcode":"6621"},
{"id":"418","label":"6622 Bække","zipcode":"6622"},
{"id":"419","label":"6623 Vorbasse","zipcode":"6623"},
{"id":"420","label":"6630 Rødding","zipcode":"6630"},
{"id":"421","label":"6640 Lunderskov","zipcode":"6640"},
{"id":"422","label":"6650 Brørup","zipcode":"6650"},
{"id":"423","label":"6660 Lintrup","zipcode":"6660"},
{"id":"424","label":"6670 Holsted","zipcode":"6670"},
{"id":"425","label":"6682 Hovborg","zipcode":"6682"},
{"id":"426","label":"6683 Føvling","zipcode":"6683"},
{"id":"427","label":"6690 Gørding","zipcode":"6690"},
{"id":"428","label":"6700 Esbjerg","zipcode":"6700"},
{"id":"429","label":"6705 Esbjerg Ø","zipcode":"6705"},
{"id":"430","label":"6710 Esbjerg V","zipcode":"6710"},
{"id":"431","label":"6715 Esbjerg N","zipcode":"6715"},
{"id":"432","label":"6720 Fanø","zipcode":"6720"},
{"id":"433","label":"6731 Tjæreborg","zipcode":"6731"},
{"id":"434","label":"6740 Bramming","zipcode":"6740"},
{"id":"435","label":"6752 Glejbjerg","zipcode":"6752"},
{"id":"436","label":"6753 Agerbæk","zipcode":"6753"},
{"id":"437","label":"6760 Ribe","zipcode":"6760"},
{"id":"438","label":"6771 Gredstedbro","zipcode":"6771"},
{"id":"439","label":"6780 Skærbæk","zipcode":"6780"},
{"id":"440","label":"6792 Rømø","zipcode":"6792"},
{"id":"441","label":"6800 Varde","zipcode":"6800"},
{"id":"442","label":"6818 Årre","zipcode":"6818"},
{"id":"443","label":"6823 Ansager","zipcode":"6823"},
{"id":"444","label":"6830 Nørre Nebel","zipcode":"6830"},
{"id":"445","label":"6840 Oksbøl","zipcode":"6840"},
{"id":"446","label":"6851 Janderup Vestj","zipcode":"6851"},
{"id":"447","label":"6852 Billum","zipcode":"6852"},
{"id":"448","label":"6853 Vejers Strand","zipcode":"6853"},
{"id":"449","label":"6854 Henne","zipcode":"6854"},
{"id":"450","label":"6855 Outrup","zipcode":"6855"},
{"id":"451","label":"6857 Blåvand","zipcode":"6857"},
{"id":"452","label":"6862 Tistrup","zipcode":"6862"},
{"id":"453","label":"6870 Ølgod","zipcode":"6870"},
{"id":"454","label":"6880 Tarm","zipcode":"6880"},
{"id":"455","label":"6893 Hemmet","zipcode":"6893"},
{"id":"456","label":"6900 Skjern","zipcode":"6900"},
{"id":"457","label":"6920 Videbæk","zipcode":"6920"},
{"id":"458","label":"6933 Kibæk","zipcode":"6933"},
{"id":"459","label":"6940 Lem St","zipcode":"6940"},
{"id":"460","label":"6950 Ringkøbing","zipcode":"6950"},
{"id":"461","label":"6960 Hvide Sande","zipcode":"6960"},
{"id":"462","label":"6971 Spjald","zipcode":"6971"},
{"id":"463","label":"6973 Ørnhøj","zipcode":"6973"},
{"id":"464","label":"6980 Tim","zipcode":"6980"},
{"id":"465","label":"6990 Ulfborg","zipcode":"6990"},
{"id":"466","label":"7000 Fredericia","zipcode":"7000"},
{"id":"467","label":"7080 Børkop","zipcode":"7080"},
{"id":"468","label":"7100 Vejle","zipcode":"7100"},
{"id":"469","label":"7120 Vejle Øst","zipcode":"7120"},
{"id":"470","label":"7130 Juelsminde","zipcode":"7130"},
{"id":"471","label":"7140 Stouby","zipcode":"7140"},
{"id":"472","label":"7150 Barrit","zipcode":"7150"},
{"id":"473","label":"7160 Tørring","zipcode":"7160"},
{"id":"474","label":"7171 Uldum","zipcode":"7171"},
{"id":"475","label":"7173 Vonge","zipcode":"7173"},
{"id":"476","label":"7182 Bredsten","zipcode":"7182"},
{"id":"477","label":"7183 Randbøl","zipcode":"7183"},
{"id":"478","label":"7184 Vandel","zipcode":"7184"},
{"id":"479","label":"7190 Billund","zipcode":"7190"},
{"id":"480","label":"7200 Grindsted","zipcode":"7200"},
{"id":"481","label":"7250 Hejnsvig","zipcode":"7250"},
{"id":"482","label":"7260 Sønder Omme","zipcode":"7260"},
{"id":"483","label":"7270 Stakroge","zipcode":"7270"},
{"id":"484","label":"7280 Sønder Felding","zipcode":"7280"},
{"id":"485","label":"7300 Jelling","zipcode":"7300"},
{"id":"486","label":"7321 Gadbjerg","zipcode":"7321"},
{"id":"487","label":"7323 Give","zipcode":"7323"},
{"id":"488","label":"7330 Brande","zipcode":"7330"},
{"id":"489","label":"7361 Ejstrupholm","zipcode":"7361"},
{"id":"490","label":"7362 Hampen","zipcode":"7362"},
{"id":"491","label":"7400 Herning","zipcode":"7400"},
{"id":"492","label":"7430 Ikast","zipcode":"7430"},
{"id":"493","label":"7441 Bording","zipcode":"7441"},
{"id":"494","label":"7442 Engesvang","zipcode":"7442"},
{"id":"495","label":"7451 Sunds","zipcode":"7451"},
{"id":"496","label":"7470 Karup J","zipcode":"7470"},
{"id":"497","label":"7480 Vildbjerg","zipcode":"7480"},
{"id":"498","label":"7490 Aulum","zipcode":"7490"},
{"id":"499","label":"7500 Holstebro","zipcode":"7500"},
{"id":"500","label":"7540 Haderup","zipcode":"7540"},
{"id":"501","label":"7550 Sørvad","zipcode":"7550"},
{"id":"502","label":"7560 Hjerm","zipcode":"7560"},
{"id":"503","label":"7570 Vemb","zipcode":"7570"},
{"id":"504","label":"7600 Struer","zipcode":"7600"},
{"id":"505","label":"7620 Lemvig","zipcode":"7620"},
{"id":"506","label":"7650 Bøvlingbjerg","zipcode":"7650"},
{"id":"507","label":"7660 Bækmarksbro","zipcode":"7660"},
{"id":"508","label":"7673 Harboøre","zipcode":"7673"},
{"id":"509","label":"7680 Thyborøn","zipcode":"7680"},
{"id":"510","label":"7700 Thisted","zipcode":"7700"},
{"id":"511","label":"7730 Hanstholm","zipcode":"7730"},
{"id":"512","label":"7741 Frøstrup","zipcode":"7741"},
{"id":"513","label":"7742 Vesløs","zipcode":"7742"},
{"id":"514","label":"7752 Snedsted","zipcode":"7752"},
{"id":"515","label":"7755 Bedsted Thy","zipcode":"7755"},
{"id":"516","label":"7760 Hurup Thy","zipcode":"7760"},
{"id":"517","label":"7770 Vestervig","zipcode":"7770"},
{"id":"518","label":"7790 Thyholm","zipcode":"7790"},
{"id":"519","label":"7800 Skive","zipcode":"7800"},
{"id":"520","label":"7830 Vinderup","zipcode":"7830"},
{"id":"521","label":"7840 Højslev","zipcode":"7840"},
{"id":"522","label":"7850 Stoholm Jyll","zipcode":"7850"},
{"id":"523","label":"7860 Spøttrup","zipcode":"7860"},
{"id":"524","label":"7870 Roslev","zipcode":"7870"},
{"id":"525","label":"7884 Fur","zipcode":"7884"},
{"id":"526","label":"7900 Nykøbing M","zipcode":"7900"},
{"id":"527","label":"7950 Erslev","zipcode":"7950"},
{"id":"528","label":"7960 Karby","zipcode":"7960"},
{"id":"529","label":"7970 Redsted M","zipcode":"7970"},
{"id":"530","label":"7980 Vils","zipcode":"7980"},
{"id":"531","label":"7990 Øster Assels","zipcode":"7990"},
{"id":"532","label":"8000 Aarhus C","zipcode":"8000"},
{"id":"533","label":"8200 Aarhus N","zipcode":"8200"},
{"id":"534","label":"8210 Aarhus V","zipcode":"8210"},
{"id":"535","label":"8220 Brabrand","zipcode":"8220"},
{"id":"536","label":"8230 Åbyhøj","zipcode":"8230"},
{"id":"537","label":"8240 Risskov","zipcode":"8240"},
{"id":"538","label":"8250 Egå","zipcode":"8250"},
{"id":"539","label":"8260 Viby J","zipcode":"8260"},
{"id":"540","label":"8270 Højbjerg","zipcode":"8270"},
{"id":"541","label":"8300 Odder","zipcode":"8300"},
{"id":"542","label":"8305 Samsø","zipcode":"8305"},
{"id":"543","label":"8310 Tranbjerg J","zipcode":"8310"},
{"id":"544","label":"8320 Mårslet","zipcode":"8320"},
{"id":"545","label":"8330 Beder","zipcode":"8330"},
{"id":"546","label":"8340 Malling","zipcode":"8340"},
{"id":"547","label":"8350 Hundslund","zipcode":"8350"},
{"id":"548","label":"8355 Solbjerg","zipcode":"8355"},
{"id":"549","label":"8361 Hasselager","zipcode":"8361"},
{"id":"550","label":"8362 Hørning","zipcode":"8362"},
{"id":"551","label":"8370 Hadsten","zipcode":"8370"},
{"id":"552","label":"8380 Trige","zipcode":"8380"},
{"id":"553","label":"8381 Tilst","zipcode":"8381"},
{"id":"554","label":"8382 Hinnerup","zipcode":"8382"},
{"id":"555","label":"8400 Ebeltoft","zipcode":"8400"},
{"id":"556","label":"8410 Rønde","zipcode":"8410"},
{"id":"557","label":"8420 Knebel","zipcode":"8420"},
{"id":"558","label":"8444 Balle","zipcode":"8444"},
{"id":"559","label":"8450 Hammel","zipcode":"8450"},
{"id":"560","label":"8462 Harlev J","zipcode":"8462"},
{"id":"561","label":"8464 Galten","zipcode":"8464"},
{"id":"562","label":"8471 Sabro","zipcode":"8471"},
{"id":"563","label":"8472 Sporup","zipcode":"8472"},
{"id":"564","label":"8500 Grenaa","zipcode":"8500"},
{"id":"565","label":"8520 Lystrup","zipcode":"8520"},
{"id":"566","label":"8530 Hjortshøj","zipcode":"8530"},
{"id":"567","label":"8541 Skødstrup","zipcode":"8541"},
{"id":"568","label":"8543 Hornslet","zipcode":"8543"},
{"id":"569","label":"8544 Mørke","zipcode":"8544"},
{"id":"570","label":"8550 Ryomgård","zipcode":"8550"},
{"id":"571","label":"8560 Kolind","zipcode":"8560"},
{"id":"572","label":"8570 Trustrup","zipcode":"8570"},
{"id":"573","label":"8581 Nimtofte","zipcode":"8581"},
{"id":"574","label":"8585 Glesborg","zipcode":"8585"},
{"id":"575","label":"8586 Ørum Djurs","zipcode":"8586"},
{"id":"576","label":"8592 Anholt","zipcode":"8592"},
{"id":"577","label":"8600 Silkeborg","zipcode":"8600"},
{"id":"578","label":"8620 Kjellerup","zipcode":"8620"},
{"id":"579","label":"8632 Lemming","zipcode":"8632"},
{"id":"580","label":"8641 Sorring","zipcode":"8641"},
{"id":"581","label":"8643 Ans By","zipcode":"8643"},
{"id":"582","label":"8653 Them","zipcode":"8653"},
{"id":"583","label":"8654 Bryrup","zipcode":"8654"},
{"id":"584","label":"8660 Skanderborg","zipcode":"8660"},
{"id":"585","label":"8670 Låsby","zipcode":"8670"},
{"id":"586","label":"8680 Ry","zipcode":"8680"},
{"id":"587","label":"8700 Horsens","zipcode":"8700"},
{"id":"588","label":"8721 Daugård","zipcode":"8721"},
{"id":"589","label":"8722 Hedensted","zipcode":"8722"},
{"id":"590","label":"8723 Løsning","zipcode":"8723"},
{"id":"591","label":"8732 Hovedgård","zipcode":"8732"},
{"id":"592","label":"8740 Brædstrup","zipcode":"8740"},
{"id":"593","label":"8751 Gedved","zipcode":"8751"},
{"id":"594","label":"8752 Østbirk","zipcode":"8752"},
{"id":"595","label":"8762 Flemming","zipcode":"8762"},
{"id":"596","label":"8763 Rask Mølle","zipcode":"8763"},
{"id":"597","label":"8765 Klovborg","zipcode":"8765"},
{"id":"598","label":"8766 Nørre Snede","zipcode":"8766"},
{"id":"599","label":"8781 Stenderup","zipcode":"8781"},
{"id":"600","label":"8783 Hornsyld","zipcode":"8783"},
{"id":"601","label":"8800 Viborg","zipcode":"8800"},
{"id":"602","label":"8830 Tjele","zipcode":"8830"},
{"id":"603","label":"8831 Løgstrup","zipcode":"8831"},
{"id":"604","label":"8832 Skals","zipcode":"8832"},
{"id":"605","label":"8840 Rødkærsbro","zipcode":"8840"},
{"id":"606","label":"8850 Bjerringbro","zipcode":"8850"},
{"id":"607","label":"8860 Ulstrup","zipcode":"8860"},
{"id":"608","label":"8870 Langå","zipcode":"8870"},
{"id":"609","label":"8881 Thorsø","zipcode":"8881"},
{"id":"610","label":"8882 Fårvang","zipcode":"8882"},
{"id":"611","label":"8883 Gjern","zipcode":"8883"},
{"id":"612","label":"8900 Randers C","zipcode":"8900"},
{"id":"613","label":"8920 Randers NV","zipcode":"8920"},
{"id":"614","label":"8930 Randers NØ","zipcode":"8930"},
{"id":"615","label":"8940 Randers SV","zipcode":"8940"},
{"id":"616","label":"8950 Ørsted","zipcode":"8950"},
{"id":"617","label":"8960 Randers SØ","zipcode":"8960"},
{"id":"618","label":"8961 Allingåbro","zipcode":"8961"},
{"id":"619","label":"8963 Auning","zipcode":"8963"},
{"id":"620","label":"8970 Havndal","zipcode":"8970"},
{"id":"621","label":"8981 Spentrup","zipcode":"8981"},
{"id":"622","label":"8983 Gjerlev J","zipcode":"8983"},
{"id":"623","label":"8990 Fårup","zipcode":"8990"},
{"id":"624","label":"9000 Aalborg","zipcode":"9000"},
{"id":"625","label":"9200 Aalborg SV","zipcode":"9200"},
{"id":"626","label":"9210 Aalborg SØ","zipcode":"9210"},
{"id":"627","label":"9220 Aalborg Øst","zipcode":"9220"},
{"id":"628","label":"9230 Svenstrup J","zipcode":"9230"},
{"id":"629","label":"9240 Nibe","zipcode":"9240"},
{"id":"630","label":"9260 Gistrup","zipcode":"9260"},
{"id":"631","label":"9270 Klarup","zipcode":"9270"},
{"id":"632","label":"9280 Storvorde","zipcode":"9280"},
{"id":"633","label":"9293 Kongerslev","zipcode":"9293"},
{"id":"634","label":"9300 Sæby","zipcode":"9300"},
{"id":"635","label":"9310 Vodskov","zipcode":"9310"},
{"id":"636","label":"9320 Hjallerup","zipcode":"9320"},
{"id":"637","label":"9330 Dronninglund","zipcode":"9330"},
{"id":"638","label":"9340 Asaa","zipcode":"9340"},
{"id":"639","label":"9352 Dybvad","zipcode":"9352"},
{"id":"640","label":"9362 Gandrup","zipcode":"9362"},
{"id":"641","label":"9370 Hals","zipcode":"9370"},
{"id":"642","label":"9380 Vestbjerg","zipcode":"9380"},
{"id":"643","label":"9381 Sulsted","zipcode":"9381"},
{"id":"644","label":"9382 Tylstrup","zipcode":"9382"},
{"id":"645","label":"9400 Nørresundby","zipcode":"9400"},
{"id":"646","label":"9430 Vadum","zipcode":"9430"},
{"id":"647","label":"9440 Aabybro","zipcode":"9440"},
{"id":"648","label":"9460 Brovst","zipcode":"9460"},
{"id":"649","label":"9480 Løkken","zipcode":"9480"},
{"id":"650","label":"9490 Pandrup","zipcode":"9490"},
{"id":"651","label":"9492 Blokhus","zipcode":"9492"},
{"id":"652","label":"9493 Saltum","zipcode":"9493"},
{"id":"653","label":"9500 Hobro","zipcode":"9500"},
{"id":"654","label":"9510 Arden","zipcode":"9510"},
{"id":"655","label":"9520 Skørping","zipcode":"9520"},
{"id":"656","label":"9530 Støvring","zipcode":"9530"},
{"id":"657","label":"9541 Suldrup","zipcode":"9541"},
{"id":"658","label":"9550 Mariager","zipcode":"9550"},
{"id":"659","label":"9560 Hadsund","zipcode":"9560"},
{"id":"660","label":"9574 Bælum","zipcode":"9574"},
{"id":"661","label":"9575 Terndrup","zipcode":"9575"},
{"id":"662","label":"9600 Aars","zipcode":"9600"},
{"id":"663","label":"9610 Nørager","zipcode":"9610"},
{"id":"664","label":"9620 Aalestrup","zipcode":"9620"},
{"id":"665","label":"9631 Gedsted","zipcode":"9631"},
{"id":"666","label":"9632 Møldrup","zipcode":"9632"},
{"id":"667","label":"9640 Farsø","zipcode":"9640"},
{"id":"668","label":"9670 Løgstør","zipcode":"9670"},
{"id":"669","label":"9681 Ranum","zipcode":"9681"},
{"id":"670","label":"9690 Fjerritslev","zipcode":"9690"},
{"id":"671","label":"9700 Brønderslev","zipcode":"9700"},
{"id":"672","label":"9740 Jerslev J","zipcode":"9740"},
{"id":"673","label":"9750 Østervrå","zipcode":"9750"},
{"id":"674","label":"9760 Vrå","zipcode":"9760"},
{"id":"675","label":"9800 Hjørring","zipcode":"9800"},
{"id":"676","label":"9830 Tårs","zipcode":"9830"},
{"id":"677","label":"9850 Hirtshals","zipcode":"9850"},
{"id":"678","label":"9870 Sindal","zipcode":"9870"},
{"id":"679","label":"9881 Bindslev","zipcode":"9881"},
{"id":"680","label":"9900 Frederikshavn","zipcode":"9900"},
{"id":"681","label":"9940 Læsø","zipcode":"9940"},
{"id":"682","label":"9970 Strandby","zipcode":"9970"},
{"id":"683","label":"9981 Jerup","zipcode":"9981"},
{"id":"684","label":"9982 Ålbæk","zipcode":"9982"},
{"id":"685","label":"9990 Skagen","zipcode":"9990"},
{"id":"686","label":"9999 Ukendt","zipcode":"9999"}
]
